{"type": "FeatureCollection", "features": [ {"type": "Feature", "properties": {"norad_id": 42987, "name": "SKYSAT-C11", "group": "resource", "lat": -60.4205929250038, "lon": -58.91014733169956, "alt_km": 430.87179581839246, "timestamp": "2025-12-22T14:45:57.042443+00:00", "meta": {"OBJECT_NAME": "SKYSAT-C11", "OBJECT_ID": "2017-068A", "EPOCH": "2025-12-22T04:25:02.759808", "MEAN_MOTION": 15.47824595, "ECCENTRICITY": 0.00011684, "INCLINATION": 97.4148, "RA_OF_ASC_NODE": 133.9121, "ARG_OF_PERICENTER": 98.1662, "MEAN_ANOMALY": 261.9721, "EPHEMERIS_TYPE": 0, "CLASSIFICATION_TYPE": "U", "NORAD_CAT_ID": 42987, "ELEMENT_SET_NO": 999, "REV_AT_EPOCH": 45577, "BSTAR": 0.00046224334, "MEAN_MOTION_DOT": 0.00023957, "MEAN_MOTION_DDOT": 0}, "tle": {"line1": "1 42987U 17068A   25356.18405972  .00023957  00000+0  46224-3 0  9995", "line2": "2 42987  97.4148 133.9121 0001168  98.1662 261.9721 15.47824595455779"}}, "geometry": {"type": "Point", "coordinates": [-58.91014733169956, -60.4205929250038]}}, {"type": "Feature", "properties": {"norad_id": 42988, "name": "SKYSAT-C10", "group": "resource", "lat": 47.328899880122556, "lon": -44.37051678588453, "alt_km": 462.857426478643, "timestamp": "2025-12-22T14:45:57.042453+00:00", "meta": {"OBJECT_NAME": "SKYSAT-C10", "OBJECT_ID": "2017-068B", "EPOCH": "2025-12-22T06:21:18.916992", "MEAN_MOTION": 15.32252627, "ECCENTRICITY": 0.00053853, "INCLINATION": 97.4266, "RA_OF_ASC_NODE": 127.1433, "ARG_OF_PERICENTER": 77.6447, "MEAN_ANOMALY": 282.5397, "EPHEMERIS_TYPE": 0, "CLASSIFICATION_TYPE": "U", "NORAD_CAT_ID": 42988, "ELEMENT_SET_NO": 999, "REV_AT_EPOCH": 45525, "BSTAR": 0.00037811069, "MEAN_MOTION_DOT": 0.00011706, "MEAN_MOTION_DDOT": 0}, "tle": {"line1": "1 42988U 17068B   25356.26480228  .00011706  00000+0  37811-3 0  9993", "line2": "2 42988  97.4266 127.1433 0005385  77.6447 282.5397 15.32252627455256"}}, "geometry": {"type": "Point", "coordinates": [-44.37051678588453, 47.328899880122556]}}, {"type": "Feature", "properties": {"norad_id": 42989, "name": "SKYSAT-C9", "group": "resource", "lat": 57.27266803937646, "lon": -41.35234811672117, "alt_km": 448.76219145784944, "timestamp": "2025-12-22T14:45:57.042464+00:00", "meta": {"OBJECT_NAME": "SKYSAT-C9", "OBJECT_ID": "2017-068C", "EPOCH": "2025-12-21T19:28:44.749056", "MEAN_MOTION": 15.36261428, "ECCENTRICITY": 0.00104433, "INCLINATION": 97.4196, "RA_OF_ASC_NODE": 126.1381, "ARG_OF_PERICENTER": 58.73, "MEAN_ANOMALY": 301.4966, "EPHEMERIS_TYPE": 0, "CLASSIFICATION_TYPE": "U", "NORAD_CAT_ID": 42989, "ELEMENT_SET_NO": 999, "REV_AT_EPOCH": 45547, "BSTAR": 0.00031500648, "MEAN_MOTION_DOT": 0.00011075, "MEAN_MOTION_DDOT": 0}, "tle": {"line1": "1 42989U 17068C   25355.81162904  .00011075  00000+0  31501-3 0  9991", "line2": "2 42989  97.4196 126.1381 0010443  58.7300 301.4966 15.36261428455479"}}, "geometry": {"type": "Point", "coordinates": [-41.35234811672117, 57.27266803937646]}}, {"type": "Feature", "properties": {"norad_id": 42990, "name": "SKYSAT-C8", "group": "resource", "lat": -18.973784977776113, "lon": 129.2310957210277, "alt_km": 471.22465586904946, "timestamp": "2025-12-22T14:45:57.042474+00:00", "meta": {"OBJECT_NAME": "SKYSAT-C8", "OBJECT_ID": "2017-068D", "EPOCH": "2025-12-21T21:37:05.479104", "MEAN_MOTION": 15.33109138, "ECCENTRICITY": 0.00010393, "INCLINATION": 97.4289, "RA_OF_ASC_NODE": 125.9421, "ARG_OF_PERICENTER": 294.8108, "MEAN_ANOMALY": 65.3026, "EPHEMERIS_TYPE": 0, "CLASSIFICATION_TYPE": "U", "NORAD_CAT_ID": 42990, "ELEMENT_SET_NO": 999, "REV_AT_EPOCH": 45511, "BSTAR": 0.00035698248, "MEAN_MOTION_DOT": 0.00011344, "MEAN_MOTION_DDOT": 0}, "tle": {"line1": "1 42990U 17068D   25355.90075786  .00011344  00000+0  35698-3 0  9994", "line2": "2 42990  97.4289 125.9421 0001039 294.8108  65.3026 15.33109138455116"}}, "geometry": {"type": "Point", "coordinates": [129.2310957210277, -18.973784977776113]}}, {"type": "Feature", "properties": {"norad_id": 42991, "name": "SKYSAT-C7", "group": "resource", "lat": 4.657514836048749, "lon": -51.6980095816854, "alt_km": 474.963473201934, "timestamp": "2025-12-22T14:45:57.042484+00:00", "meta": {"OBJECT_NAME": "SKYSAT-C7", "OBJECT_ID": "2017-068E", "EPOCH": "2025-12-21T14:29:53.176416", "MEAN_MOTION": 15.32498854, "ECCENTRICITY": 0.0007098, "INCLINATION": 97.4298, "RA_OF_ASC_NODE": 126.6779, "ARG_OF_PERICENTER": 29.4906, "MEAN_ANOMALY": 330.6735, "EPHEMERIS_TYPE": 0, "CLASSIFICATION_TYPE": "U", "NORAD_CAT_ID": 42991, "ELEMENT_SET_NO": 999, "REV_AT_EPOCH": 45513, "BSTAR": 0.00028728, "MEAN_MOTION_DOT": 8.944e-05, "MEAN_MOTION_DDOT": 0}, "tle": {"line1": "1 42991U 17068E   25355.60408769  .00008944  00000+0  28728-3 0  9991", "line2": "2 42991  97.4298 126.6779 0007098  29.4906 330.6735 15.32498854455132"}}, "geometry": {"type": "Point", "coordinates": [-51.6980095816854, 4.657514836048749]}}, {"type": "Feature", "properties": {"norad_id": 42992, "name": "SKYSAT-C6", "group": "resource", "lat": -79.26650312940914, "lon": -95.40509058422055, "alt_km": 481.17681500816343, "timestamp": "2025-12-22T14:45:57.042494+00:00", "meta": {"OBJECT_NAME": "SKYSAT-C6", "OBJECT_ID": "2017-068F", "EPOCH": "2025-12-22T02:38:56.222016", "MEAN_MOTION": 15.31668599, "ECCENTRICITY": 0.00049202, "INCLINATION": 97.4328, "RA_OF_ASC_NODE": 127.6172, "ARG_OF_PERICENTER": 57.51, "MEAN_ANOMALY": 302.6617, "EPHEMERIS_TYPE": 0, "CLASSIFICATION_TYPE": "U", "NORAD_CAT_ID": 42992, "ELEMENT_SET_NO": 999, "REV_AT_EPOCH": 45519, "BSTAR": 0.00036431443, "MEAN_MOTION_DOT": 0.0001107, "MEAN_MOTION_DDOT": 0}, "tle": {"line1": "1 42992U 17068F   25356.11037294  .00011070  00000+0  36431-3 0  9994", "line2": "2 42992  97.4328 127.6172 0004920  57.5100 302.6617 15.31668599455192"}}, "geometry": {"type": "Point", "coordinates": [-95.40509058422055, -79.26650312940914]}}, {"type": "Feature", "properties": {"norad_id": 43111, "name": "CARTOSAT-2F", "group": "resource", "lat": -67.82770689080645, "lon": 72.7711042607496, "alt_km": 516.4718942959444, "timestamp": "2025-12-22T14:45:57.042504+00:00", "meta": {"OBJECT_NAME": "CARTOSAT-2F", "OBJECT_ID": "2018-004A", "EPOCH": "2025-12-22T07:09:56.041056", "MEAN_MOTION": 15.19208809, "ECCENTRICITY": 0.00014049, "INCLINATION": 97.4306, "RA_OF_ASC_NODE": 53.7815, "ARG_OF_PERICENTER": 113.0099, "MEAN_ANOMALY": 247.1284, "EPHEMERIS_TYPE": 0, "CLASSIFICATION_TYPE": "U", "NORAD_CAT_ID": 43111, "ELEMENT_SET_NO": 999, "REV_AT_EPOCH": 44047, "BSTAR": 0.0001924235, "MEAN_MOTION_DOT": 3.983e-05, "MEAN_MOTION_DDOT": 0}, "tle": {"line1": "1 43111U 18004A   25356.29856529  .00003983  00000+0  19242-3 0  9993", "line2": "2 43111  97.4306  53.7815 0001404 113.0099 247.1284 15.19208809440472"}}, "geometry": {"type": "Point", "coordinates": [72.7711042607496, -67.82770689080645]}}, {"type": "Feature", "properties": {"norad_id": 43259, "name": "GAOFEN-1 02", "group": "resource", "lat": -22.488801658356603, "lon": 57.779522718136896, "alt_km": 647.6068954532038, "timestamp": "2025-12-22T14:45:57.042514+00:00", "meta": {"OBJECT_NAME": "GAOFEN-1 02", "OBJECT_ID": "2018-031A", "EPOCH": "2025-12-22T06:44:09.590784", "MEAN_MOTION": 14.76434451, "ECCENTRICITY": 0.00024383, "INCLINATION": 98.0796, "RA_OF_ASC_NODE": 54.0735, "ARG_OF_PERICENTER": 179.942, "MEAN_ANOMALY": 180.179, "EPHEMERIS_TYPE": 0, "CLASSIFICATION_TYPE": "U", "NORAD_CAT_ID": 43259, "ELEMENT_SET_NO": 999, "REV_AT_EPOCH": 41659, "BSTAR": 0.00016239058, "MEAN_MOTION_DOT": 1.077e-05, "MEAN_MOTION_DDOT": 0}, "tle": {"line1": "1 43259U 18031A   25356.28066656  .00001077  00000+0  16239-3 0  9994", "line2": "2 43259  98.0796  54.0735 0002438 179.9420 180.1790 14.76434451416597"}}, "geometry": {"type": "Point", "coordinates": [57.779522718136896, -22.488801658356603]}}, {"type": "Feature", "properties": {"norad_id": 43260, "name": "GAOFEN-1 03", "group": "resource", "lat": 81.26405684120239, "lon": -58.15112668031215, "alt_km": 634.2828930614087, "timestamp": "2025-12-22T14:45:57.042524+00:00", "meta": {"OBJECT_NAME": "GAOFEN-1 03", "OBJECT_ID": "2018-031B", "EPOCH": "2025-12-22T06:12:43.943616", "MEAN_MOTION": 14.76455687, "ECCENTRICITY": 0.00017041, "INCLINATION": 98.0785, "RA_OF_ASC_NODE": 53.9272, "ARG_OF_PERICENTER": 271.5387, "MEAN_ANOMALY": 88.5627, "EPHEMERIS_TYPE": 0, "CLASSIFICATION_TYPE": "U", "NORAD_CAT_ID": 43260, "ELEMENT_SET_NO": 999, "REV_AT_EPOCH": 41658, "BSTAR": 0.00013478037, "MEAN_MOTION_DOT": 8.86e-06, "MEAN_MOTION_DDOT": 0}, "tle": {"line1": "1 43260U 18031B   25356.25884194  .00000886  00000+0  13478-3 0  9997", "line2": "2 43260  98.0785  53.9272 0001704 271.5387  88.5627 14.76455687416580"}}, "geometry": {"type": "Point", "coordinates": [-58.15112668031215, 81.26405684120239]}}, {"type": "Feature", "properties": {"norad_id": 43262, "name": "GAOFEN-1 04", "group": "resource", "lat": -42.15823671242426, "lon": -132.93535750880125, "alt_km": 647.7109867176405, "timestamp": "2025-12-22T14:45:57.042534+00:00", "meta": {"OBJECT_NAME": "GAOFEN-1 04", "OBJECT_ID": "2018-031D", "EPOCH": "2025-12-22T07:15:16.622208", "MEAN_MOTION": 14.76422801, "ECCENTRICITY": 6.548e-05, "INCLINATION": 98.0798, "RA_OF_ASC_NODE": 54.1415, "ARG_OF_PERICENTER": 54.9051, "MEAN_ANOMALY": 305.222, "EPHEMERIS_TYPE": 0, "CLASSIFICATION_TYPE": "U", "NORAD_CAT_ID": 43262, "ELEMENT_SET_NO": 999, "REV_AT_EPOCH": 41658, "BSTAR": 6.2101621e-05, "MEAN_MOTION_DOT": 3.8e-06, "MEAN_MOTION_DDOT": 0}, "tle": {"line1": "1 43262U 18031D   25356.30227572  .00000380  00000+0  62102-4 0  9994", "line2": "2 43262  98.0798  54.1415 0000654  54.9051 305.2220 14.76422801416582"}}, "geometry": {"type": "Point", "coordinates": [-132.93535750880125, -42.15823671242426]}}]}